[{"OBJECT_NAME":"STARLINK-30534","OBJECT_ID":"2023-153B","EPOCH":"2026-03-09T23:28:27.193728","MEAN_MOTION":15.2732689,"ECCENTRICITY":2.726e-5,"INCLINATION":42.9996,"RA_OF_ASC_NODE":65.1547,"ARG_OF_PERICENTER":225.5896,"MEAN_ANOMALY":134.4933,"EPHEMERIS_TYPE":0,"CLASSIFICATION_TYPE":"U","NORAD_CAT_ID":57992,"ELEMENT_SET_NO":999,"REV_AT_EPOCH":13484,"BSTAR":0.0056972934,"MEAN_MOTION_DOT":0.00158702,"MEAN_MOTION_DDOT":0},{"OBJECT_NAME":"SCS-01 M","OBJECT_ID":"2025-100M","EPOCH":"2026-03-09T23:50:15.541152","MEAN_MOTION":15.31880861,"ECCENTRICITY":0.00078021,"INCLINATION":97.3725,"RA_OF_ASC_NODE":145.6908,"ARG_OF_PERICENTER":292.3826,"MEAN_ANOMALY":67.6588,"EPHEMERIS_TYPE":0,"CLASSIFICATION_TYPE":"U","NORAD_CAT_ID":63993,"ELEMENT_SET_NO":999,"REV_AT_EPOCH":4565,"BSTAR":0.0012010051,"MEAN_MOTION_DOT":0.00037061,"MEAN_MOTION_DDOT":0}]
